DIRECTV 15              
1 40663U 15026A   26095.51065155 -.00000101  00000+0  00000+0 0  9994
2 40663   0.0324  93.7134 0000560  65.3340 115.7178  1.00271896 39735
SKY MEXICO-1            
1 40664U 15026B   26095.51541824 -.00000233  00000+0  00000+0 0  9993
2 40664   0.0202 113.7686 0002622 287.6677 259.1194  1.00271651 39728
METEOSAT-11 (MSG-4)     
1 40732U 15034A   26095.22822667  .00000065  00000+0  00000+0 0  9995
2 40732   3.0186  71.4910 0001745 284.9949 288.5195  1.00276148  6485
STAR ONE C4             
1 40733U 15034B   26095.51715159 -.00000264  00000+0  00000+0 0  9997
2 40733   0.0117  58.4155 0002822 316.1649 295.4102  1.00273039 39280
WGS F7 (USA 263)        
1 40746U 15036A   26095.54906097  .00000019  00000+0  00000+0 0  9996
2 40746   0.0152 226.4397 0001328 259.9426  80.1160  1.00271903 39141
INTELSAT 34 (IS-34)     
1 40874U 15039A   26095.23485651 -.00000284  00000+0  00000+0 0  9990
2 40874   0.0228 272.6147 0000056 208.6149 101.3653  1.00271776 38895
EUTELSAT 8 WEST B       
1 40875U 15039B   26095.24421655 -.00000064  00000+0  00000+0 0  9992
2 40875   0.0698  10.8793 0003808   4.7779 257.8189  1.00272371 38925
GSAT-6                  
1 40880U 15041A   26095.60126298 -.00000158  00000+0  00000+0 0  9990
2 40880   1.7318  83.4871 0003022 299.6623 109.7333  1.00270056 38870
INMARSAT 5-F3           
1 40882U 15042A   26095.39767176  .00000051  00000+0  00000+0 0  9996
2 40882   0.0160 177.7871 0001315 237.8582 100.7906  1.00271609 38846
MUOS-4                  
1 40887U 15044A   26095.62347920 -.00000089  00000+0  00000+0 0  9992
2 40887   4.1946  41.7507 0059819   0.3027  91.2533  1.00272313 38835
TJS-1                   
1 40892U 15046A   26095.53725332 -.00000154  00000+0  00000+0 0  9990
2 40892   0.1360  83.0171 0005320 318.7804 140.4777  1.00272883 38840
EXPRESS-AM8             
1 40895U 15048A   26094.38740734 -.00000111  00000+0  00000+0 0  9993
2 40895   0.0199 223.1662 0000166  92.5667   2.4472  1.00272896 38608
BEIDOU-3S IGSO-2S       
1 40938U 15053A   26094.90867057 -.00000141  00000+0  00000+0 0  9996
2 40938  49.3383 259.6493 0062372 189.8511 167.6444  1.00277370 38614
SKY MUSTER 1 (NBN1A)    
1 40940U 15054A   26095.48750690 -.00000277  00000+0  00000+0 0  9998
2 40940   0.0150 246.7745 0001692 128.8935 133.8770  1.00273852 38530
ARSAT 2                 
1 40941U 15054B   26095.51498491 -.00000223  00000+0  00000+0 0  9992
2 40941   0.0327 279.1460 0002024  91.9279 287.1305  1.00272226 38577
MORELOS 3               
1 40946U 15056A   26095.55962052 -.00000041  00000+0  00000+0 0  9990
2 40946   3.1323  13.0400 0003384 358.4380 270.7371  1.00272744 38559
APSTAR-9                
1 40982U 15059A   26095.55918508 -.00000264  00000+0  00000+0 0  9997
2 40982   0.0411 356.3021 0000965 242.9698 297.9085  1.00273424 38397
