[{"OBJECT_NAME":"DIRECTV 15","OBJECT_ID":"2015-026A","EPOCH":"2026-04-05T12:15:20.293920","MEAN_MOTION":1.00271896,"ECCENTRICITY":5.602e-5,"INCLINATION":0.0324,"RA_OF_ASC_NODE":93.7134,"ARG_OF_PERICENTER":65.334,"MEAN_ANOMALY":115.7178,"EPHEMERIS_TYPE":0,"CLASSIFICATION_TYPE":"U","NORAD_CAT_ID":40663,"ELEMENT_SET_NO":999,"REV_AT_EPOCH":3973,"BSTAR":0,"MEAN_MOTION_DOT":-1.01e-6,"MEAN_MOTION_DDOT":0},{"OBJECT_NAME":"SKY MEXICO-1","OBJECT_ID":"2015-026B","EPOCH":"2026-04-05T12:22:12.135936","MEAN_MOTION":1.00271651,"ECCENTRICITY":0.00026227,"INCLINATION":0.0202,"RA_OF_ASC_NODE":113.7686,"ARG_OF_PERICENTER":287.6677,"MEAN_ANOMALY":259.1194,"EPHEMERIS_TYPE":0,"CLASSIFICATION_TYPE":"U","NORAD_CAT_ID":40664,"ELEMENT_SET_NO":999,"REV_AT_EPOCH":3972,"BSTAR":0,"MEAN_MOTION_DOT":-2.33e-6,"MEAN_MOTION_DDOT":0},{"OBJECT_NAME":"METEOSAT-11 (MSG-4)","OBJECT_ID":"2015-034A","EPOCH":"2026-04-05T05:28:38.784288","MEAN_MOTION":1.00276148,"ECCENTRICITY":0.0001745,"INCLINATION":3.0186,"RA_OF_ASC_NODE":71.491,"ARG_OF_PERICENTER":284.9949,"MEAN_ANOMALY":288.5195,"EPHEMERIS_TYPE":0,"CLASSIFICATION_TYPE":"U","NORAD_CAT_ID":40732,"ELEMENT_SET_NO":999,"REV_AT_EPOCH":648,"BSTAR":0,"MEAN_MOTION_DOT":6.5e-7,"MEAN_MOTION_DDOT":0},{"OBJECT_NAME":"STAR ONE C4","OBJECT_ID":"2015-034B","EPOCH":"2026-04-05T12:24:41.897376","MEAN_MOTION":1.00273039,"ECCENTRICITY":0.00028229,"INCLINATION":0.0117,"RA_OF_ASC_NODE":58.4155,"ARG_OF_PERICENTER":316.1649,"MEAN_ANOMALY":295.4102,"EPHEMERIS_TYPE":0,"CLASSIFICATION_TYPE":"U","NORAD_CAT_ID":40733,"ELEMENT_SET_NO":999,"REV_AT_EPOCH":3928,"BSTAR":0,"MEAN_MOTION_DOT":-2.64e-6,"MEAN_MOTION_DDOT":0},{"OBJECT_NAME":"WGS F7 (USA 263)","OBJECT_ID":"2015-036A","EPOCH":"2026-04-05T13:10:38.867808","MEAN_MOTION":1.00271903,"ECCENTRICITY":0.00013287,"INCLINATION":0.0152,"RA_OF_ASC_NODE":226.4397,"ARG_OF_PERICENTER":259.9426,"MEAN_ANOMALY":80.116,"EPHEMERIS_TYPE":0,"CLASSIFICATION_TYPE":"U","NORAD_CAT_ID":40746,"ELEMENT_SET_NO":999,"REV_AT_EPOCH":3914,"BSTAR":0,"MEAN_MOTION_DOT":1.9e-7,"MEAN_MOTION_DDOT":0},{"OBJECT_NAME":"INTELSAT 34 (IS-34)","OBJECT_ID":"2015-039A","EPOCH":"2026-04-05T05:38:11.602464","MEAN_MOTION":1.00271776,"ECCENTRICITY":5.69e-6,"INCLINATION":0.0228,"RA_OF_ASC_NODE":272.6147,"ARG_OF_PERICENTER":208.6149,"MEAN_ANOMALY":101.3653,"EPHEMERIS_TYPE":0,"CLASSIFICATION_TYPE":"U","NORAD_CAT_ID":40874,"ELEMENT_SET_NO":999,"REV_AT_EPOCH":3889,"BSTAR":0,"MEAN_MOTION_DOT":-2.84e-6,"MEAN_MOTION_DDOT":0},{"OBJECT_NAME":"EUTELSAT 8 WEST B","OBJECT_ID":"2015-039B","EPOCH":"2026-04-05T05:51:40.309920","MEAN_MOTION":1.00272371,"ECCENTRICITY":0.0003808,"INCLINATION":0.0698,"RA_OF_ASC_NODE":10.8793,"ARG_OF_PERICENTER":4.7779,"MEAN_ANOMALY":257.8189,"EPHEMERIS_TYPE":0,"CLASSIFICATION_TYPE":"U","NORAD_CAT_ID":40875,"ELEMENT_SET_NO":999,"REV_AT_EPOCH":3892,"BSTAR":0,"MEAN_MOTION_DOT":-6.4e-7,"MEAN_MOTION_DDOT":0},{"OBJECT_NAME":"GSAT-6","OBJECT_ID":"2015-041A","EPOCH":"2026-04-05T14:25:49.121472","MEAN_MOTION":1.00270056,"ECCENTRICITY":0.00030221,"INCLINATION":1.7318,"RA_OF_ASC_NODE":83.4871,"ARG_OF_PERICENTER":299.6623,"MEAN_ANOMALY":109.7333,"EPHEMERIS_TYPE":0,"CLASSIFICATION_TYPE":"U","NORAD_CAT_ID":40880,"ELEMENT_SET_NO":999,"REV_AT_EPOCH":3887,"BSTAR":0,"MEAN_MOTION_DOT":-1.58e-6,"MEAN_MOTION_DDOT":0},{"OBJECT_NAME":"INMARSAT 5-F3","OBJECT_ID":"2015-042A","EPOCH":"2026-04-05T09:32:38.840064","MEAN_MOTION":1.00271609,"ECCENTRICITY":0.00013154,"INCLINATION":0.016,"RA_OF_ASC_NODE":177.7871,"ARG_OF_PERICENTER":237.8582,"MEAN_ANOMALY":100.7906,"EPHEMERIS_TYPE":0,"CLASSIFICATION_TYPE":"U","NORAD_CAT_ID":40882,"ELEMENT_SET_NO":999,"REV_AT_EPOCH":3884,"BSTAR":0,"MEAN_MOTION_DOT":5.1e-7,"MEAN_MOTION_DDOT":0},{"OBJECT_NAME":"MUOS-4","OBJECT_ID":"2015-044A","EPOCH":"2026-04-05T14:57:48.602880","MEAN_MOTION":1.00272313,"ECCENTRICITY":0.0059819,"INCLINATION":4.1946,"RA_OF_ASC_NODE":41.7507,"ARG_OF_PERICENTER":0.3027,"MEAN_ANOMALY":91.2533,"EPHEMERIS_TYPE":0,"CLASSIFICATION_TYPE":"U","NORAD_CAT_ID":40887,"ELEMENT_SET_NO":999,"REV_AT_EPOCH":3883,"BSTAR":0,"MEAN_MOTION_DOT":-8.9e-7,"MEAN_MOTION_DDOT":0},{"OBJECT_NAME":"TJS-1","OBJECT_ID":"2015-046A","EPOCH":"2026-04-05T12:53:38.686848","MEAN_MOTION":1.00272883,"ECCENTRICITY":0.00053204,"INCLINATION":0.136,"RA_OF_ASC_NODE":83.0171,"ARG_OF_PERICENTER":318.7804,"MEAN_ANOMALY":140.4777,"EPHEMERIS_TYPE":0,"CLASSIFICATION_TYPE":"U","NORAD_CAT_ID":40892,"ELEMENT_SET_NO":999,"REV_AT_EPOCH":3884,"BSTAR":0,"MEAN_MOTION_DOT":-1.54e-6,"MEAN_MOTION_DDOT":0},{"OBJECT_NAME":"EXPRESS-AM8","OBJECT_ID":"2015-048A","EPOCH":"2026-04-04T09:17:51.994176","MEAN_MOTION":1.00272896,"ECCENTRICITY":1.667e-5,"INCLINATION":0.0199,"RA_OF_ASC_NODE":223.1662,"ARG_OF_PERICENTER":92.5667,"MEAN_ANOMALY":2.4472,"EPHEMERIS_TYPE":0,"CLASSIFICATION_TYPE":"U","NORAD_CAT_ID":40895,"ELEMENT_SET_NO":999,"REV_AT_EPOCH":3860,"BSTAR":0,"MEAN_MOTION_DOT":-1.11e-6,"MEAN_MOTION_DDOT":0},{"OBJECT_NAME":"BEIDOU-3S IGSO-2S","OBJECT_ID":"2015-053A","EPOCH":"2026-04-04T21:48:29.137248","MEAN_MOTION":1.0027737,"ECCENTRICITY":0.00623728,"INCLINATION":49.3383,"RA_OF_ASC_NODE":259.6493,"ARG_OF_PERICENTER":189.8511,"MEAN_ANOMALY":167.6444,"EPHEMERIS_TYPE":0,"CLASSIFICATION_TYPE":"U","NORAD_CAT_ID":40938,"ELEMENT_SET_NO":999,"REV_AT_EPOCH":3861,"BSTAR":0,"MEAN_MOTION_DOT":-1.41e-6,"MEAN_MOTION_DDOT":0},{"OBJECT_NAME":"SKY MUSTER 1 (NBN1A)","OBJECT_ID":"2015-054A","EPOCH":"2026-04-05T11:42:00.596160","MEAN_MOTION":1.00273852,"ECCENTRICITY":0.00016928,"INCLINATION":0.015,"RA_OF_ASC_NODE":246.7745,"ARG_OF_PERICENTER":128.8935,"MEAN_ANOMALY":133.877,"EPHEMERIS_TYPE":0,"CLASSIFICATION_TYPE":"U","NORAD_CAT_ID":40940,"ELEMENT_SET_NO":999,"REV_AT_EPOCH":3853,"BSTAR":0,"MEAN_MOTION_DOT":-2.77e-6,"MEAN_MOTION_DDOT":0},{"OBJECT_NAME":"ARSAT 2","OBJECT_ID":"2015-054B","EPOCH":"2026-04-05T12:21:34.696224","MEAN_MOTION":1.00272226,"ECCENTRICITY":0.00020248,"INCLINATION":0.0327,"RA_OF_ASC_NODE":279.146,"ARG_OF_PERICENTER":91.9279,"MEAN_ANOMALY":287.1305,"EPHEMERIS_TYPE":0,"CLASSIFICATION_TYPE":"U","NORAD_CAT_ID":40941,"ELEMENT_SET_NO":999,"REV_AT_EPOCH":3857,"BSTAR":0,"MEAN_MOTION_DOT":-2.23e-6,"MEAN_MOTION_DDOT":0},{"OBJECT_NAME":"MORELOS 3","OBJECT_ID":"2015-056A","EPOCH":"2026-04-05T13:25:51.212928","MEAN_MOTION":1.00272744,"ECCENTRICITY":0.00033841,"INCLINATION":3.1323,"RA_OF_ASC_NODE":13.04,"ARG_OF_PERICENTER":358.438,"MEAN_ANOMALY":270.7371,"EPHEMERIS_TYPE":0,"CLASSIFICATION_TYPE":"U","NORAD_CAT_ID":40946,"ELEMENT_SET_NO":999,"REV_AT_EPOCH":3855,"BSTAR":0,"MEAN_MOTION_DOT":-4.1e-7,"MEAN_MOTION_DDOT":0},{"OBJECT_NAME":"APSTAR-9","OBJECT_ID":"2015-059A","EPOCH":"2026-04-05T13:25:13.590912","MEAN_MOTION":1.00273424,"ECCENTRICITY":9.658e-5,"INCLINATION":0.0411,"RA_OF_ASC_NODE":356.3021,"ARG_OF_PERICENTER":242.9698,"MEAN_ANOMALY":297.9085,"EPHEMERIS_TYPE":0,"CLASSIFICATION_TYPE":"U","NORAD_CAT_ID":40982,"ELEMENT_SET_NO":999,"REV_AT_EPOCH":3839,"BSTAR":0,"MEAN_MOTION_DOT":-2.64e-6,"MEAN_MOTION_DDOT":0}]
